NETSAT-4                
1 46504U 20068U   23069.90312082  .00013911  00000+0  95536-3 0  9995
2 46504  97.7538  14.9506 0012946 136.5343 223.6912 15.06017398134106
NETSAT-3                
1 46505U 20068V   23069.66173510  .00012633  00000+0  87093-3 0  9999
2 46505  97.7474  14.5736 0011818 142.2644 217.9443 15.05908443134072
NETSAT-1                
1 46506U 20068W   23069.88947040  .00011773  00000+0  81523-3 0  9997
2 46506  97.7496  14.7080 0009638 149.5185 210.6628 15.05782869134109
NETSAT-2                
1 46507U 20068X   23069.89647256  .00013631  00000+0  93897-3 0  9997
2 46507  97.7525  14.7138 0008901 154.4490 205.7182 15.05944999134051
BY70-3                  
1 46839U 20079N   23070.47117313  .00354393  00000+0  21308-2 0  9999
2 46839  97.1560 147.2444 0001349 211.4916 280.7255 15.76745552131648
UVSQ-SAT                
1 47438U 21006AB  23069.13646107  .00030307  00000+0  13671-2 0  9995
2 47438  97.3982 127.8348 0011642  74.6940 285.5582 15.20896935117577
SOMP2B                  
1 47445U 21006AJ  23069.87080345  .00024763  00000+0  11370-2 0  9993
2 47445  97.3954 127.9485 0011530  76.7477 283.5043 15.20331497117668
DIY-1 (ARDUIQUBE)       
1 47963U 21022AH  23070.31560778  .00140723  00000+0  43649-2 0  9999
2 47963  97.5090 335.6177 0006956 297.3931  62.6602 15.32804341107475
CAS-5A                  
1 54684U 22167C   23070.59102473  .00023662  00000+0  14073-2 0  9993
2 54684  97.5444 209.1144 0013883 309.7538 124.0965 15.11171744 13925
